NORAD 66877
1 66877U 25282A   26029.00260630  .06982961  11099-4  15713-3 0  9994
2 66877  56.9348 221.2234 0189836 305.9492  52.4108 16.09996158  8556
